NORAD_CAT_ID,OBJECT_NAME,OBJECT_TYPE,EPOCH,MEAN_MOTION,ECCENTRICITY,INCLINATION,RA_OF_ASC_NODE,ARG_OF_PERICENTER,MEAN_ANOMALY,BSTAR,MEAN_MOTION_DOT,MEAN_MOTION_DDOT,TLE_LINE0,TLE_LINE1,TLE_LINE2,SEMIMAJOR_AXIS,PERIOD,APOGEE,PERIGEE,DECAYED
52355.0,STARLINK-3877,PAYLOAD,2022-05-15 22:00:00,15.7318563,0.0001081,53.2126,356.9264,92.0904,348.5037,-0.00024076,-0.0003425,0.0,0 STARLINK-3877,1 52355U 22045AA  22135.91667824 -.00034250  00000-0 -24076-3 0  9997,2 52355  53.2126 356.9264 0001081  92.0904 348.5037 15.73185630  5071,6727.936,91.534,350.528,349.074,0.0
52355.0,STARLINK-3877,PAYLOAD,2022-05-16 06:00:02,15.73209058,9.35e-05,53.2173,355.2737,113.6336,55.7027,-5.9319e-05,-8.938e-05,0.0,0 STARLINK-3877,1 52355U 22045AA  22136.25002315 -.00008938  00000-0 -59319-4 0  9996,2 52355  53.2173 355.2737 0000935 113.6336  55.7027 15.73209058  5129,6727.869000000002,91.533,350.36300000000006,349.105,0.0
52355.0,STARLINK-3877,PAYLOAD,2022-05-16 12:00:00,15.73166273,0.00011,53.2139,354.0373,100.7646,45.4109,0.00064065,0.0009013,0.0,0 STARLINK-3877,1 52355U 22045AA  22136.50001157  .00090130  00000-0  64065-3 0  9993,2 52355  53.2139 354.0373 0001100 100.7646  45.4109 15.73166273  5162,6727.991,91.535,350.596,349.116,0.0
52355.0,STARLINK-3877,PAYLOAD,2022-05-16 14:00:01,15.73208018,0.0001105,53.2143,353.6248,101.7388,156.6542,0.00016499,0.00022605,0.0,0 STARLINK-3877,1 52355U 22045AA  22136.58334491  .00022605  00000-0  16499-3 0  9991,2 52355  53.2143 353.6248 0001105 101.7388 156.6542 15.73208018  1304,6727.871999999999,91.533,350.481,348.994,0.0
52355.0,STARLINK-3877,PAYLOAD,2022-05-16 22:00:00,15.73241151,0.0001018,53.2145,351.9771,86.5661,260.8165,-0.00028486,-0.00040475,0.0,0 STARLINK-3877,1 52355U 22045AA  22136.91667824 -.00040475  00000-0 -28486-3 0  9993,2 52355  53.2145 351.9771 0001018  86.5661 260.8165 15.73241151  1309,6727.778,91.531,350.32800000000015,348.958,0.0
52355.0,STARLINK-3877,PAYLOAD,2022-05-17 06:00:00,15.73216432,0.0001055,53.2139,350.3264,90.1357,346.2062,6.38e-05,8.349e-05,0.0,0 STARLINK-3877,1 52355U 22045AA  22137.25001157  .00008349  00000-0  63800-4 0  9994,2 52355  53.2139 350.3264 0001055  90.1357 346.2062 15.73216432  5286,6727.848000000001,91.532,350.423,349.004,0.0
52355.0,STARLINK-3877,PAYLOAD,2022-05-17 12:00:00,15.73215916,0.0001167,53.214,349.0879,100.0554,312.981,-0.00056287,-0.0007892999999999,0.0,0 STARLINK-3877,1 52355U 22045AA  22137.50001157 -.00078930  00000-0 -56287-3 0  9997,2 52355  53.2140 349.0879 0001167 100.0554 312.9810 15.73215916  5321,6727.85,91.532,350.5,348.93,0.0
52355.0,STARLINK-3877,PAYLOAD,2022-05-17 14:00:01,15.73209153,0.0001230999999999,53.2142,348.6756,101.203,64.1315,-0.00064262,-0.00089884,0.0,0 STARLINK-3877,1 52355U 22045AA  22137.58335648 -.00089884  00000-0 -64262-3 0  9992,2 52355  53.2142 348.6756 0001231 101.2030  64.1315 15.73209153  1302,6727.869000000002,91.533,350.56199999999984,348.906,0.0
52355.0,STARLINK-3877,PAYLOAD,2022-05-17 20:00:01,15.7316158,0.0001163,53.214,347.4401,91.141,50.8416,-0.00013866,-0.00020001,0.0,0 STARLINK-3877,1 52355U 22045AA  22137.83334491 -.00020001  00000-0 -13866-3 0  9995,2 52355  53.2140 347.4401 0001163  91.1410  50.8416 15.73161580  5373,6728.005,91.535,350.652,349.087,0.0
52355.0,STARLINK-3877,PAYLOAD,2022-05-17 22:00:01,15.73152871,0.0001164,53.2142,347.0282,87.9876,166.2826,-6.426899999999999e-05,-9.61e-05,0.0,0 STARLINK-3877,1 52355U 22045AA  22137.91668981 -.00009610  00000-0 -64269-4 0  9995,2 52355  53.2142 347.0282 0001164  87.9876 166.2826 15.73152871  1307,6728.03,91.536,350.67800000000005,349.111,0.0
52355.0,STARLINK-3877,PAYLOAD,2022-05-18 06:00:00,15.73156649,0.0001151,53.2143,345.3774,91.5727,251.5271,0.00019772,0.00027167,0.0,0 STARLINK-3877,1 52355U 22045AA  22138.25001157  .00027167  00000-0  19772-3 0  9992,2 52355  53.2143 345.3774 0001151  91.5727 251.5271 15.73156649  5434,6728.019,91.536,350.658,349.1090000000001,0.0
52355.0,STARLINK-3877,PAYLOAD,2022-05-18 14:00:01,15.73185505,0.0001209,53.2148,343.7268,97.3905,334.5881,0.00057335,0.00080571,0.0,0 STARLINK-3877,1 52355U 22045AA  22138.58334491  .00080571  00000-0  57335-3 0  9993,2 52355  53.2148 343.7268 0001209  97.3905 334.5881 15.73185505  1309,6727.936,91.534,350.615,348.98800000000006,0.0
52355.0,STARLINK-3877,PAYLOAD,2022-05-18 22:00:00,15.73229696,0.0001121,53.2146,342.0792,81.9041,79.015,-0.00054122,-0.00075988,0.0,0 STARLINK-3877,1 52355U 22045AA  22138.91667824 -.00075988  00000-0 -54122-3 0  9998,2 52355  53.2146 342.0792 0001121  81.9041  79.0150 15.73229696  1304,6727.811,91.531,350.43,348.921,0.0
52355.0,STARLINK-3877,PAYLOAD,2022-05-19 06:00:00,15.73079442,0.0001115,53.2169,340.4272,103.5561,146.1854,0.0014328,0.00204374,0.0,0 STARLINK-3877,1 52355U 22045AA  22139.25001157  .00204374  00000-0  14328-2 0  9991,2 52355  53.2169 340.4272 0001115 103.5561 146.1854 15.73079442  5599,6728.239000000001,91.54,350.85400000000016,349.35400000000016,0.0
52355.0,STARLINK-3877,PAYLOAD,2022-05-19 14:00:01,15.73229053,0.0001207,53.2148,338.777,97.5098,241.3491,-0.00014436,-0.00020855,0.0,0 STARLINK-3877,1 52355U 22045AA  22139.58335648 -.00020855  00000-0 -14436-3 0  9995,2 52355  53.2148 338.7770 0001207  97.5098 241.3491 15.73229053  1303,6727.812,91.531,350.48900000000015,348.865,0.0
52355.0,STARLINK-3877,PAYLOAD,2022-05-19 22:00:00,15.7322736,0.000111,53.2145,337.1304,82.6826,345.0742,9.8432e-05,0.00013232,0.0,0 STARLINK-3877,1 52355U 22045AA  22139.91667824  .00013232  00000-0  98432-4 0  9994,2 52355  53.2145 337.1304 0001110  82.6826 345.0742 15.73227360  5701,6727.816999999999,91.532,350.42900000000014,348.935,0.0
52355.0,STARLINK-3877,PAYLOAD,2022-05-20 14:00:01,15.73214624,0.0001187,53.215,333.829,90.798,154.856,-0.00034741,-0.00049122,0.0,0 STARLINK-3877,1 52355U 22045AA  22140.58334491 -.00049122  00000-0 -34741-3 0  9991,2 52355  53.2150 333.8290 0001187  90.7980 154.8560 15.73214624  5803,6727.853,91.532,350.517,348.92,0.0
52355.0,STARLINK-3877,PAYLOAD,2022-05-20 22:00:00,15.73186439,0.0001204,53.2148,332.1815,76.9508,257.6363,-7.2824e-06,-1.641e-05,0.0,0 STARLINK-3877,1 52355U 22045AA  22140.91667824 -.00001641  00000-0 -72824-5 0  9997,2 52355  53.2148 332.1815 0001204  76.9508 257.6363 15.73186439  1303,6727.934,91.534,350.6090000000001,348.98900000000015,0.0
52355.0,STARLINK-3877,PAYLOAD,2022-05-21 06:00:00,15.731859599999998,9.71e-05,53.2144,330.5304,82.2647,341.2284,0.00040213,0.0005616,0.0,0 STARLINK-3877,1 52355U 22045AA  22141.25001157  .00056160  00000-0  40213-3 0  9995,2 52355  53.2144 330.5304 0000971  82.2647 341.2284 15.73185960  5919,6727.935,91.534,350.45300000000015,349.147,0.0
52355.0,STARLINK-3877,PAYLOAD,2022-05-21 14:00:01,15.73218114,0.0001048,53.2146,328.8806,88.0538,64.4252,6.2473e-05,8.163e-05,0.0,0 STARLINK-3877,1 52355U 22045AA  22141.58335648  .00008163  00000-0  62473-4 0  9999,2 52355  53.2146 328.8806 0001048  88.0538  64.4252 15.73218114  1303,6727.844,91.532,350.414,349.00300000000016,0.0
52355.0,STARLINK-3877,PAYLOAD,2022-05-21 20:00:01,15.73231995,0.0001043,53.2144,327.6452,73.6475,55.4848,-0.00019992,-0.00028619,0.0,0 STARLINK-3877,1 52355U 22045AA  22141.83334491 -.00028619  00000-0 -19992-3 0  9999,2 52355  53.2144 327.6452 0001043  73.6475  55.4848 15.73231995  6005,6727.804,91.531,350.371,348.967,0.0
52355.0,STARLINK-3877,PAYLOAD,2022-05-21 22:00:00,15.73207413,0.0001045,53.2146,327.2331,70.2377,171.1416,0.00012801,0.00017388,0.0,0 STARLINK-3877,1 52355U 22045AA  22141.91667824  .00017388  00000-0  12801-3 0  9998,2 52355  53.2146 327.2331 0001045  70.2377 171.1416 15.73207413  1308,6727.874,91.533,350.44199999999995,349.036,0.0
52355.0,STARLINK-3877,PAYLOAD,2022-05-22 14:00:01,15.73206606,0.0001262,53.2177,323.9308,80.6239,338.3996,-2.7281e-05,-4.448e-05,0.0,0 STARLINK-3877,1 52355U 22045AA  22142.58334491 -.00004448  00000-0 -27281-4 0  9997,2 52355  53.2177 323.9308 0001262  80.6239 338.3996 15.73206606  6120,6727.876,91.533,350.59,348.892,0.0
52355.0,STARLINK-3877,PAYLOAD,2022-05-22 22:00:01,15.73224745,0.000129,53.2147,322.2842,66.8147,81.4681,0.00012487,0.00016958,0.0,0 STARLINK-3877,1 52355U 22045AA  22142.91668981  .00016958  00000-0  12487-3 0  9996,2 52355  53.2147 322.2842 0001290  66.8147  81.4681 15.73224745  6173,6727.825,91.532,350.55800000000005,348.82199999999995,0.0
52355.0,STARLINK-3877,PAYLOAD,2022-05-23 04:00:00,15.73249503,0.0001165,53.2142,321.0456,69.6019,55.3336,-0.00072031,-0.0010072,0.0,0 STARLINK-3877,1 52355U 22045AA  22143.16667824 -.00100720  00000-0 -72031-3 0  9993,2 52355  53.2142 321.0456 0001165  69.6019  55.3336 15.73249503  6217,6727.754,91.53,350.403,348.835,0.0
52355.0,STARLINK-3877,PAYLOAD,2022-05-23 14:00:01,15.73163772,0.0001131,53.2144,318.9835,74.908,251.1693,-0.00017412,-0.00024945,0.0,0 STARLINK-3877,1 52355U 22045AA  22143.58334491 -.00024945  00000-0 -17412-3 0  9996,2 52355  53.2144 318.9835 0001131  74.9080 251.1693 15.73163772  1305,6727.998000000001,91.535,350.624,349.103,0.0
52355.0,STARLINK-3877,PAYLOAD,2022-05-23 22:00:01,15.73119287,0.0001219,53.2141,317.3358,62.2616,352.7938,0.00070566,0.00099247,0.0,0 STARLINK-3877,1 52355U 22045AA  22143.91668981  .00099247  00000-0  70566-3 0  9991,2 52355  53.2141 317.3358 0001219  62.2616 352.7938 15.73119287  6337,6728.125,91.538,350.81,349.17,0.0
52355.0,STARLINK-3877,PAYLOAD,2022-05-24 04:00:00,15.73169311,0.0001185,53.2141,316.0972,66.4948,325.1268,0.00033578,0.00046705,0.0,0 STARLINK-3877,1 52355U 22045AA  22144.16667824  .00046705  00000-0  33578-3 0  9997,2 52355  53.2141 316.0972 0001185  66.4948 325.1268 15.73169311  6367,6727.983,91.535,350.645,349.05,0.0
52355.0,STARLINK-3877,PAYLOAD,2022-05-24 14:00:01,15.73245275,0.0001148,53.2145,314.035,68.3118,164.4241,-0.00012116,-0.00017621,0.0,0 STARLINK-3877,1 52355U 22045AA  22144.58334491 -.00017621  00000-0 -12116-3 0  9996,2 52355  53.2145 314.0350 0001148  68.3118 164.4241 15.73245275  1306,6727.766,91.531,350.403,348.8590000000001,0.0
